IRIDIUM 166             
1 43570U 18061B   25056.63650884  .00000014  00000+0 -20245-5 0  9996
2 43570  86.3918 255.8456 0002025  78.9520 281.1904 14.34217791345096
IRIDIUM 158             
1 43571U 18061C   25056.60479629 -.00000001  00000+0 -75139-5 0  9999
2 43571  86.3919 255.8687 0002145  90.5864 269.5578 14.34217712345054
IRIDIUM 165             
1 43572U 18061D   25056.63016600  .00000102  00000+0  29293-4 0  9998
2 43572  86.3918 255.8953 0001873  86.2329 273.9081 14.34218209345088
IRIDIUM 155             
1 43573U 18061E   25056.59211157 -.00000009  00000+0 -10339-4 0  9997
2 43573  86.3915 255.8039 0002227  85.6722 274.4728 14.34217700345040
IRIDIUM 154             
1 43574U 18061F   25056.57308276  .00000000  00000+0 -69507-5 0  9997
2 43574  86.3919 255.9219 0001895  88.8251 271.3161 14.34217705345095
IRIDIUM 163             
1 43575U 18061G   25056.62382395  .00000040  00000+0  73350-5 0  9992
2 43575  86.3916 255.8310 0002099  92.6148 267.5288 14.34217697345074
IRIDIUM 156             
1 43576U 18061H   25056.59845417  .00000001  00000+0 -67096-5 0  9996
2 43576  86.3918 255.8485 0002228  81.6731 278.4718 14.34217539345063
IRIDIUM 164             
1 43577U 18061J   25056.57942493  .00000002  00000+0 -61824-5 0  9991
2 43577  86.3917 255.8890 0001735  86.0751 274.0643 14.34217709345109
